[{"OBJECT_NAME":"GAOFEN-5 01","OBJECT_ID":"2018-043A","EPOCH":"2026-03-09T22:22:27.309792","MEAN_MOTION":14.60523795,"ECCENTRICITY":0.00026321,"INCLINATION":98.4468,"RA_OF_ASC_NODE":38.4968,"ARG_OF_PERICENTER":51.5893,"MEAN_ANOMALY":308.5542,"EPHEMERIS_TYPE":0,"CLASSIFICATION_TYPE":"U","NORAD_CAT_ID":43461,"ELEMENT_SET_NO":999,"REV_AT_EPOCH":41720,"BSTAR":0.00013017918,"MEAN_MOTION_DOT":5.83e-6,"MEAN_MOTION_DDOT":0},{"OBJECT_NAME":"NOAA 16 DEB","OBJECT_ID":"2000-055QT","EPOCH":"2026-03-07T04:17:00.047328","MEAN_MOTION":14.61260411,"ECCENTRICITY":0.00317627,"INCLINATION":98.6917,"RA_OF_ASC_NODE":199.2628,"ARG_OF_PERICENTER":251.9871,"MEAN_ANOMALY":107.7866,"EPHEMERIS_TYPE":0,"CLASSIFICATION_TYPE":"U","NORAD_CAT_ID":42351,"ELEMENT_SET_NO":999,"REV_AT_EPOCH":51855,"BSTAR":0.003375842,"MEAN_MOTION_DOT":0.00016757,"MEAN_MOTION_DDOT":0}]
